[{"OBJECT_NAME":"MOHAMMED VI-A","OBJECT_ID":"2017-070A","EPOCH":"2026-03-09T23:14:54.770208","MEAN_MOTION":14.771271,"ECCENTRICITY":0.00014633,"INCLINATION":97.9427,"RA_OF_ASC_NODE":142.7067,"ARG_OF_PERICENTER":97.7701,"MEAN_ANOMALY":262.3676,"EPHEMERIS_TYPE":0,"CLASSIFICATION_TYPE":"U","NORAD_CAT_ID":43005,"ELEMENT_SET_NO":999,"REV_AT_EPOCH":44933,"BSTAR":0.00019951362,"MEAN_MOTION_DOT":1.36e-5,"MEAN_MOTION_DDOT":0},{"OBJECT_NAME":"CZ-6A DEB","OBJECT_ID":"2022-151AGT","EPOCH":"2026-03-08T01:59:01.401504","MEAN_MOTION":14.54465324,"ECCENTRICITY":0.01067791,"INCLINATION":98.8083,"RA_OF_ASC_NODE":150.2765,"ARG_OF_PERICENTER":267.0965,"MEAN_ANOMALY":91.8006,"EPHEMERIS_TYPE":0,"CLASSIFICATION_TYPE":"U","NORAD_CAT_ID":56667,"ELEMENT_SET_NO":999,"REV_AT_EPOCH":15708,"BSTAR":0.0007597353,"MEAN_MOTION_DOT":3.434e-5,"MEAN_MOTION_DDOT":0}]
